*******************************************************************************
JPL/HORIZONS                1585 Union (1947 RG)           2023-Sep-04 11:13:00
Rec #:    1585 (+COV) Soln.date: 2023-Aug-22_05:45:40   # obs: 4819 (1939-2022)
 
IAU76/J2000 helio. ecliptic osc. elements (au, days, deg., period=Julian yrs):
 
  EPOCH=  2457453.5 ! 2016-Mar-06.00 (TDB)         Residual RMS= .2333
   EC= .3091546528280824   QR= 2.022162102019461   TP= 2458283.3855967117
   OM= 150.0945814538024   W=  264.6088571884017   IN= 26.18818170294755
   A= 2.927083623415132    MA= 196.6686295093813   ADIST= 3.832005144810802
   PER= 5.00796            N= .196811911           ANGMOM= .02798884
   DAN= 2.72652            DDN= 2.5726             L= 54.0910045
   B= -26.0636013          MOID= 1.20562005        TP= 2018-Jun-13.8855967117
 
Asteroid physical parameters (km, seconds, rotational period in hours):
   GM= n.a.                RAD= 27.6355            ROTPER= 12.798
   H= 10.37                G= .150                 B-V= .590
                           ALBEDO= .031            STYP= n.a.

ASTEROID comments: 
1: soln ref.= JPL#68, OCC=0
2: source=ORB
*******************************************************************************


*******************************************************************************
Ephemeris / API_USER Mon Sep  4 11:13:00 2023 Pasadena, USA      / Horizons
*******************************************************************************
Target body name: 1585 Union (1947 RG)            {source: JPL#68}
Center body name: Solar System Barycenter (0)     {source: DE441}
Center-site name: BODY CENTER
*******************************************************************************
Start time      : A.D. 2023-Aug-12 00:00:00.0000 TDB
Stop  time      : A.D. 2023-Aug-13 00:00:00.0000 TDB
Step-size       : 2880 minutes
*******************************************************************************
Center geodetic : 0.0, 0.0, 0.0                   {E-lon(deg),Lat(deg),Alt(km)}
Center cylindric: 0.0, 0.0, 0.0                   {E-lon(deg),Dxy(km),Dz(km)}
Center radii    : (undefined)
Small perturbers: Yes                             {source: SB441-N16}
Output units    : KM-S
Calendar mode   : Mixed Julian/Gregorian
Output type     : GEOMETRIC cartesian states
Output format   : 2 (position and velocity)
Reference frame : Ecliptic of J2000.0
*******************************************************************************
Initial IAU76/J2000 heliocentric ecliptic osculating elements (au, days, deg.):
  EPOCH=  2457453.5 ! 2016-Mar-06.00 (TDB)         Residual RMS= .2333         
   EC= .3091546528280824   QR= 2.022162102019461   TP= 2458283.3855967117      
   OM= 150.0945814538024   W=  264.6088571884017   IN= 26.18818170294755       
  Equivalent ICRF heliocentric cartesian coordinates (au, au/d):
   X=-1.476196305828881E+00  Y=-3.498185106336332E+00  Z= 3.116193445594421E-01
  VX= 6.781442440981372E-03 VY=-2.424932398562284E-03 VZ=-1.544430987687983E-03
Asteroid physical parameters (km, seconds, rotational period in hours):        
   GM= n.a.                RAD= 27.6355            ROTPER= 12.798              
   H= 10.37                G= .150                 B-V= .590                   
                           ALBEDO= .031            STYP= n.a.                  
*******************************************************************************
JDTDB
   X     Y     Z
   VX    VY    VZ
*******************************************************************************
$$SOE
2460168.500000000 = A.D. 2023-Aug-12 00:00:00.0000 TDB 
 X = 5.508289878740737E+07 Y = 2.733328890654774E+08 Z =-1.303595756825781E+08
 VX=-2.214281644339133E+01 VY= 7.945943652802193E+00 VZ= 2.039589596675032E+00
$$EOE
*******************************************************************************
 
TIME

  Barycentric Dynamical Time ("TDB" or T_eph) output was requested. This
continuous coordinate time is equivalent to the relativistic proper time
of a clock at rest in a reference frame co-moving with the solar system
barycenter but outside the system's gravity well. It is the independent
variable in the solar system relativistic equations of motion.

  TDB runs at a uniform rate of one SI second per second and is independent
of irregularities in Earth's rotation.
 
CALENDAR SYSTEM

  Mixed calendar mode was active such that calendar dates after AD 1582-Oct-15
(if any) are in the modern Gregorian system. Dates prior to 1582-Oct-5 (if any)
are in the Julian calendar system, which is automatically extended for dates
prior to its adoption on 45-Jan-1 BC.  The Julian calendar is useful for
matching historical dates. The Gregorian calendar more accurately corresponds
to the Earth's orbital motion and seasons. A "Gregorian-only" calendar mode is
available if such physical events are the primary interest.

REFERENCE FRAME AND COORDINATES

  Ecliptic at the standard reference epoch

    Reference epoch: J2000.0
    X-Y plane: adopted Earth orbital plane at the reference epoch
               Note: IAU76 obliquity of 84381.448 arcseconds wrt ICRF X-Y plane
    X-axis   : ICRF
    Z-axis   : perpendicular to the X-Y plane in the directional (+ or -) sense
               of Earth's north pole at the reference epoch.

  Symbol meaning:

    JDTDB    Julian Day Number, Barycentric Dynamical Time
      X      X-component of position vector (km)
      Y      Y-component of position vector (km)
      Z      Z-component of position vector (km)
      VX     X-component of velocity vector (km/sec)                           
      VY     Y-component of velocity vector (km/sec)                           
      VZ     Z-component of velocity vector (km/sec)                           

ABERRATIONS AND CORRECTIONS

 Geometric state vectors have NO corrections or aberrations applied.

Computations by ...

    Solar System Dynamics Group, Horizons On-Line Ephemeris System
    4800 Oak Grove Drive, Jet Propulsion Laboratory
    Pasadena, CA  91109   USA

    General site: https://ssd.jpl.nasa.gov/
    Mailing list: https://ssd.jpl.nasa.gov/email_list.html
    System news : https://ssd.jpl.nasa.gov/horizons/news.html
    User Guide  : https://ssd.jpl.nasa.gov/horizons/manual.html
    Connect     : browser        https://ssd.jpl.nasa.gov/horizons/app.html#/x
                  API            https://ssd-api.jpl.nasa.gov/doc/horizons.html
                  command-line   telnet ssd.jpl.nasa.gov 6775
                  e-mail/batch   https://ssd.jpl.nasa.gov/ftp/ssd/hrzn_batch.txt
                  scripts        https://ssd.jpl.nasa.gov/ftp/ssd/SCRIPTS
    Author      : Jon.D.Giorgini@jpl.nasa.gov
*******************************************************************************
